IRIDIUM 57 [-]          
1 25273U 98019B   23293.73083957  .00000759  00000+0  26016-3 0  9995
2 25273  86.4001  38.7824 0002129  92.6454 267.4986 14.34949089337934
IRIDIUM 63 [-]          
1 25286U 98021B   23293.56332323  .00000635  00000+0  21428-3 0  9992
2 25286  86.3997 335.8247 0002397  90.6486 269.4985 14.35453546336930
IRIDIUM 71 [-]          
1 25320U 98026B   23293.55265344  .00000727  00000+0  22479-3 0  9992
2 25320  86.4008 345.7360 0000446  20.6098 339.5119 14.39960491336400
IRIDIUM 73 [-]          
1 25344U 98032C   23293.50929608  .00000905  00000+0  22821-3 0  9999
2 25344  86.4373 303.5700 0001808 103.0551 257.0856 14.50078761342743
IRIDIUM 82 [-]          
1 25467U 98051A   23293.36426085  .00013482  00000+0  78633-3 0  9997
2 25467  86.3966  39.0174 0146786  21.3435 339.3833 15.03085823332238
IRIDIUM 2 [-]           
1 25527U 98066A   23293.90306494  .00045722  00000+0  10482-2 0  9990
2 25527  85.5157  94.9429 0004737 159.8845 200.2597 15.42552088370490
